STARLINK-5306           
1 55271U 23010C   26068.35849346  .00000787  00000+0  73714-4 0  9997
2 55271  70.0003  45.3995 0003022 270.3748  89.7065 14.98330801172737
HAWK-9A                 
1 59446U 24066E   26068.43100697  .00002638  00000+0  23459-3 0  9992
2 59446  45.6088  72.7153 0003627 244.6286 115.4219 14.98777479104861
